H1 CPF  1  DLR 2021 03 12 10  5712 technosat            
H2  1704205 6203    42829 2021 03 12 00 00 00 2021 03 19 00 00 00    60 1 1  0 0 0
H9
10 0 59285  64800.000000  0       -331423.266      -1619349.084      -6792147.092
10 0 59285  64860.000000  0       -656539.794      -1922048.362      -6688824.307
10 0 59285  64920.000000  0       -981526.114      -2213907.702      -6557472.815
10 0 59285  64980.000000  0      -1304929.183      -2493718.173      -6398636.105
10 0 59285  65040.000000  0      -1625291.198      -2760332.399      -6212971.306
10 0 59285  65100.000000  0      -1941155.951      -3012669.182      -6001246.798
10 0 59285  65160.000000  0      -2251075.262      -3249717.859      -5764339.413
10 0 59285  65220.000000  0      -2553615.492      -3470542.401      -5503231.252
10 0 59285  65280.000000  0      -2847364.123      -3674285.231      -5219006.029
10 0 59285  65340.000000  0      -3130936.347      -3860170.684      -4912844.931
10 0 59285  65400.000000  0      -3402981.562      -4027508.080      -4586022.068
10 0 59285  65460.000000  0      -3662189.806      -4175694.449      -4239899.531
10 0 59285  65520.000000  0      -3907298.097      -4304216.868      -3875922.083
10 0 59285  65580.000000  0      -4137096.681      -4412654.429      -3495611.446
10 0 59285  65640.000000  0      -4350435.115      -4500679.791      -3100560.196
10 0 59285  65700.000000  0      -4546228.138      -4568060.284      -2692425.280
10 0 59285  65760.000000  0      -4723461.310      -4614658.574      -2272921.240
10 0 59285  65820.000000  0      -4881196.401      -4640432.902      -1843813.110
10 0 59285  65880.000000  0      -5018576.459      -4645436.859      -1406909.024
10 0 59285  65940.000000  0      -5134830.540      -4629818.699       -964052.596
10 0 59285  66000.000000  0      -5229278.082      -4593820.217       -517115.092
10 0 59285  66060.000000  0      -5301332.906      -4537775.187        -67987.401
10 0 59285  66120.000000  0      -5350506.752      -4462107.317        381428.157
10 0 59285  66180.000000  0      -5376412.358      -4367327.770        829226.115
10 0 59285  66240.000000  0      -5378766.046      -4254032.220       1273506.203
10 0 59285  66300.000000  0      -5357389.786      -4122897.488       1712381.671
10 0 59285  66360.000000  0      -5312212.767      -3974677.789       2143987.527
10 0 59285  66420.000000  0      -5243272.443      -3810200.608       2566488.726
10 0 59285  66480.000000  0      -5150715.029      -3630362.233       2978088.183
10 0 59285  66540.000000  0      -5034795.496      -3436122.989       3377034.624
10 0 59285  66600.000000  0      -4895877.037      -3228502.177       3761630.267
10 0 59285  66660.000000  0      -4734429.957      -3008572.705       4130238.259
10 0 59285  66720.000000  0      -4551029.995      -2777455.494       4481289.756
10 0 59285  66780.000000  0      -4346356.186      -2536313.719       4813290.632
10 0 59285  66840.000000  0      -4121188.257      -2286346.923       5124827.854
10 0 59285  66900.000000  0      -3876403.553      -2028785.019       5414575.500
10 0 59285  66960.000000  0      -3612973.520      -1764882.217       5681300.410
10 0 59285  67020.000000  0      -3331959.738      -1495910.857       5923867.494
10 0 59285  67080.000000  0      -3034509.447      -1223155.178       6141244.558
10 0 59285  67140.000000  0      -2721850.695       -947905.093       6332506.646
10 0 59285  67200.000000  0      -2395287.078       -671449.967       6496839.903
10 0 59285  67260.000000  0      -2056192.118       -395072.503       6633544.887
10 0 59285  67320.000000  0      -1706003.357       -120042.807       6742039.382
10 0 59285  67380.000000  0      -1346216.210        152387.420       6821860.795
10 0 59285  67440.000000  0       -978377.536        420990.616       6872668.115
10 0 59285  67500.000000  0       -604078.920        684568.937       6894243.343
10 0 59285  67560.000000  0       -224949.735        941959.653       6886492.418
10 0 59285  67620.000000  0        157349.985       1192040.320       6849445.654
10 0 59285  67680.000000  0        541136.880       1433733.761       6783257.700
10 0 59285  67740.000000  0        924711.768       1666012.803       6688206.906
10 0 59285  67800.000000  0       1306367.210       1887904.678       6564694.197
10 0 59285  67860.000000  0       1684395.180       2098495.157       6413241.484
10 0 59285  67920.000000  0       2057094.763       2296932.379       6234489.589
10 0 59285  67980.000000  0       2422779.914       2482430.402       6029195.715
10 0 59285  68040.000000  0       2779787.256       2654272.434       5798230.403
10 0 59285  68100.000000  0       3126483.850       2811813.710       5542573.955
10 0 59285  68160.000000  0       3461274.854       2954484.006       5263312.337
10 0 59285  68220.000000  0       3782611.018       3081789.797       4961632.596
10 0 59285  68280.000000  0       4088995.971       3193316.012       4638817.887
10 0 59285  68340.000000  0       4378993.385       3288727.361       4296242.139
10 0 59285  68400.000000  0       4651234.057       3367769.354       3935364.372
10 0 59285  68460.000000  0       4904422.820       3430269.008       3557722.298
10 0 59285  68520.000000  0       5137344.863       3476134.875       3164925.476
10 0 59285  68580.000000  0       5348871.673       3505356.709       2758648.397
10 0 59285  68640.000000  0       5537966.695       3518004.820       2340623.197
10 0 59285  68700.000000  0       5703690.572       3514228.994       1912632.044
10 0 59285  68760.000000  0       5845205.941       3494257.010       1476499.277
10 0 59285  68820.000000  0       5961781.727       3458392.740       1034083.320
10 0 59285  68880.000000  0       6052796.909       3407013.849        587268.417
10 0 59285  68940.000000  0       6117743.700       3340569.099        137956.278
10 0 59285  69000.000000  0       6156230.192       3259575.327       -311942.305
10 0 59285  69060.000000  0       6167982.478       3164614.067       -760515.884
10 0 59285  69120.000000  0       6152846.116       3056327.832      -1205860.762
10 0 59285  69180.000000  0       6110786.973       2935416.182      -1646089.247
10 0 59285  69240.000000  0       6041891.586       2802631.606      -2079337.839
10 0 59285  69300.000000  0       5946366.896       2658775.088      -2503775.321
10 0 59285  69360.000000  0       5824539.393       2504691.447      -2917610.597
10 0 59285  69420.000000  0       5676853.701       2341264.537      -3319100.267
10 0 59285  69480.000000  0       5503870.645       2169412.308      -3706555.971
10 0 59285  69540.000000  0       5306264.764       1990081.735      -4078351.463
10 0 59285  69600.000000  0       5084821.204       1804243.668      -4432929.342
10 0 59285  69660.000000  0       4840432.133       1612887.650      -4768807.275
10 0 59285  69720.000000  0       4574092.804       1417016.754      -5084583.859
10 0 59285  69780.000000  0       4286897.173       1217642.449      -5378944.162
10 0 59285  69840.000000  0       3980033.111       1015779.491      -5650664.828
10 0 59285  69900.000000  0       3654777.249        812440.888      -5898618.798
10 0 59285  69960.000000  0       3312489.405        608632.941      -6121779.605
10 0 59285  70020.000000  0       2954606.700        405350.425      -6319225.135
10 0 59285  70080.000000  0       2582637.474        203571.899      -6490141.021
10 0 59285  70140.000000  0       2198154.894          4255.164      -6633823.578
10 0 59285  70200.000000  0       1802790.389       -191667.095      -6749682.311
10 0 59285  70260.000000  0       1398226.865       -383291.526      -6837242.107
10 0 59285  70320.000000  0        986191.562       -569748.140      -6896144.929
10 0 59285  70380.000000  0        568448.822       -750204.074      -6926150.950
10 0 59285  70440.000000  0        146792.787       -923867.147      -6927139.313
10 0 59285  70500.000000  0       -276960.015      -1089989.181      -6899108.504
10 0 59285  70560.000000  0       -700978.211      -1247869.092      -6842176.374
10 0 59285  70620.000000  0      -1123423.269      -1396855.751      -6756579.693
10 0 59285  70680.000000  0      -1542457.210      -1536350.583      -6642673.258
10 0 59285  70740.000000  0      -1956250.369      -1665809.925      -6500928.563
10 0 59285  70800.000000  0      -2362989.117      -1784747.058      -6331931.989
10 0 59285  70860.000000  0      -2760883.513      -1892733.979      -6136382.689
10 0 59285  70920.000000  0      -3148174.992      -1989402.944      -5915090.100
10 0 59285  70980.000000  0      -3523144.068      -2074447.734      -5668971.012
10 0 59285  71040.000000  0      -3884117.965      -2147624.608      -5399046.163
10 0 59285  71100.000000  0      -4229478.106      -2208752.960      -5106436.367
10 0 59285  71160.000000  0      -4557667.400      -2257715.654      -4792358.235
10 0 59285  71220.000000  0      -4867197.365      -2294459.075      -4458119.522
10 0 59285  71280.000000  0      -5156655.054      -2318992.877      -4105114.064
10 0 59285  71340.000000  0      -5424709.734      -2331389.421      -3734816.297
10 0 59285  71400.000000  0      -5670119.282      -2331782.887      -3348775.372
10 0 59285  71460.000000  0      -5891736.218      -2320368.074      -2948608.900
10 0 59285  71520.000000  0      -6088513.368      -2297398.895      -2535996.357
10 0 59285  71580.000000  0      -6259509.133      -2263186.576      -2112672.195
10 0 59285  71640.000000  0      -6403892.351      -2218097.565      -1680418.629
10 0 59285  71700.000000  0      -6520946.649      -2162551.139      -1241058.123
10 0 59285  71760.000000  0      -6610074.275      -2097016.741       -796445.684
10 0 59285  71820.000000  0      -6670799.430      -2022011.069       -348460.938
10 0 59285  71880.000000  0      -6702771.028      -1938094.896        100999.949
10 0 59285  71940.000000  0      -6705764.869      -1845869.657        550032.497
99
